[{"OBJECT_NAME":"STARLINK-4350","OBJECT_ID":"2022-077C","EPOCH":"2026-03-09T22:20:49.918848","MEAN_MOTION":15.0565129,"ECCENTRICITY":0.00015783,"INCLINATION":97.6027,"RA_OF_ASC_NODE":251.4606,"ARG_OF_PERICENTER":86.2761,"MEAN_ANOMALY":273.8646,"EPHEMERIS_TYPE":0,"CLASSIFICATION_TYPE":"U","NORAD_CAT_ID":53045,"ELEMENT_SET_NO":999,"REV_AT_EPOCH":20102,"BSTAR":1.9001185e-5,"MEAN_MOTION_DOT":2.13e-6,"MEAN_MOTION_DDOT":0},{"OBJECT_NAME":"DIAMANT R\/B","OBJECT_ID":"1966-013B","EPOCH":"2026-03-09T06:54:47.653920","MEAN_MOTION":12.93422759,"ECCENTRICITY":0.10366862,"INCLINATION":34.0694,"RA_OF_ASC_NODE":174.684,"ARG_OF_PERICENTER":274.635,"MEAN_ANOMALY":73.6812,"EPHEMERIS_TYPE":0,"CLASSIFICATION_TYPE":"U","NORAD_CAT_ID":2017,"ELEMENT_SET_NO":999,"REV_AT_EPOCH":75683,"BSTAR":0.00075378297,"MEAN_MOTION_DOT":2.953e-5,"MEAN_MOTION_DDOT":0}]
